<?xml version="1.0" encoding="UTF-8"?>
<gpx xmlns="http://www.topografix.com/GPX/1/1" version="1.1" creator="eTrex 30">
  <trk>
    <name>Morning walk</name>
    <trkseg>
      <trkpt lat="41.169000" lon="-8.671029"><ele>40.0</ele><time>2026-08-09T08:12:00Z</time></trkpt>
      <trkpt lat="41.169209" lon="-8.671034"><ele>40.0</ele><time>2026-08-09T08:12:12Z</time></trkpt>
      <trkpt lat="41.169419" lon="-8.671049"><ele>40.0</ele><time>2026-08-09T08:12:24Z</time></trkpt>
      <trkpt lat="41.169627" lon="-8.671073"><ele>40.1</ele><time>2026-08-09T08:12:36Z</time></trkpt>
      <trkpt lat="41.169835" lon="-8.671107"><ele>40.2</ele><time>2026-08-09T08:12:48Z</time></trkpt>
      <trkpt lat="41.170042" lon="-8.671151"><ele>40.3</ele><time>2026-08-09T08:13:00Z</time></trkpt>
      <trkpt lat="41.170247" lon="-8.671204"><ele>40.4</ele><time>2026-08-09T08:13:12Z</time></trkpt>
      <trkpt lat="41.170452" lon="-8.671266"><ele>40.5</ele><time>2026-08-09T08:13:24Z</time></trkpt>
      <trkpt lat="41.170654" lon="-8.671338"><ele>40.7</ele><time>2026-08-09T08:13:36Z</time></trkpt>
      <trkpt lat="41.170854" lon="-8.671420"><ele>40.9</ele><time>2026-08-09T08:13:48Z</time></trkpt>
      <trkpt lat="41.171052" lon="-8.671510"><ele>41.1</ele><time>2026-08-09T08:14:00Z</time></trkpt>
      <trkpt lat="41.171248" lon="-8.671610"><ele>41.3</ele><time>2026-08-09T08:14:12Z</time></trkpt>
      <trkpt lat="41.171440" lon="-8.671719"><ele>41.5</ele><time>2026-08-09T08:14:24Z</time></trkpt>
      <trkpt lat="41.171630" lon="-8.671836"><ele>41.8</ele><time>2026-08-09T08:14:36Z</time></trkpt>
      <trkpt lat="41.171817" lon="-8.671962"><ele>42.0</ele><time>2026-08-09T08:14:48Z</time></trkpt>
      <trkpt lat="41.172000" lon="-8.672097"><ele>42.3</ele><time>2026-08-09T08:15:00Z</time></trkpt>
      <trkpt lat="41.172180" lon="-8.672241"><ele>42.7</ele><time>2026-08-09T08:15:12Z</time></trkpt>
      <trkpt lat="41.172355" lon="-8.672392"><ele>43.0</ele><time>2026-08-09T08:15:24Z</time></trkpt>
      <trkpt lat="41.172527" lon="-8.672552"><ele>43.3</ele><time>2026-08-09T08:15:36Z</time></trkpt>
      <trkpt lat="41.172694" lon="-8.672719"><ele>43.7</ele><time>2026-08-09T08:15:48Z</time></trkpt>
      <trkpt lat="41.172857" lon="-8.672894"><ele>44.1</ele><time>2026-08-09T08:16:00Z</time></trkpt>
      <trkpt lat="41.173015" lon="-8.673077"><ele>44.5</ele><time>2026-08-09T08:16:12Z</time></trkpt>
      <trkpt lat="41.173168" lon="-8.673266"><ele>44.9</ele><time>2026-08-09T08:16:24Z</time></trkpt>
      <trkpt lat="41.173316" lon="-8.673463"><ele>45.3</ele><time>2026-08-09T08:16:36Z</time></trkpt>
      <trkpt lat="41.173459" lon="-8.673667"><ele>45.8</ele><time>2026-08-09T08:16:48Z</time></trkpt>
      <trkpt lat="41.173596" lon="-8.673877"><ele>46.3</ele><time>2026-08-09T08:17:00Z</time></trkpt>
      <trkpt lat="41.173728" lon="-8.674093"><ele>46.7</ele><time>2026-08-09T08:17:12Z</time></trkpt>
      <trkpt lat="41.173854" lon="-8.674315"><ele>47.2</ele><time>2026-08-09T08:17:24Z</time></trkpt>
      <trkpt lat="41.173974" lon="-8.674543"><ele>47.7</ele><time>2026-08-09T08:17:36Z</time></trkpt>
      <trkpt lat="41.174088" lon="-8.674776"><ele>48.2</ele><time>2026-08-09T08:17:48Z</time></trkpt>
      <trkpt lat="41.174196" lon="-8.675015"><ele>48.8</ele><time>2026-08-09T08:18:00Z</time></trkpt>
      <trkpt lat="41.174298" lon="-8.675258"><ele>49.3</ele><time>2026-08-09T08:18:12Z</time></trkpt>
      <trkpt lat="41.174393" lon="-8.675506"><ele>49.8</ele><time>2026-08-09T08:18:24Z</time></trkpt>
      <trkpt lat="41.174481" lon="-8.675758"><ele>50.4</ele><time>2026-08-09T08:18:36Z</time></trkpt>
      <trkpt lat="41.174563" lon="-8.676014"><ele>50.9</ele><time>2026-08-09T08:18:48Z</time></trkpt>
      <trkpt lat="41.174638" lon="-8.676274"><ele>51.5</ele><time>2026-08-09T08:19:00Z</time></trkpt>
      <trkpt lat="41.174706" lon="-8.676537"><ele>52.1</ele><time>2026-08-09T08:19:12Z</time></trkpt>
      <trkpt lat="41.174768" lon="-8.676803"><ele>52.7</ele><time>2026-08-09T08:19:24Z</time></trkpt>
      <trkpt lat="41.174822" lon="-8.677072"><ele>53.3</ele><time>2026-08-09T08:19:36Z</time></trkpt>
      <trkpt lat="41.174869" lon="-8.677343"><ele>53.9</ele><time>2026-08-09T08:19:48Z</time></trkpt>
      <trkpt lat="41.174909" lon="-8.677616"><ele>54.5</ele><time>2026-08-09T08:20:00Z</time></trkpt>
      <trkpt lat="41.174942" lon="-8.677891"><ele>55.1</ele><time>2026-08-09T08:20:12Z</time></trkpt>
      <trkpt lat="41.174967" lon="-8.678167"><ele>55.7</ele><time>2026-08-09T08:20:24Z</time></trkpt>
      <trkpt lat="41.174985" lon="-8.678444"><ele>56.3</ele><time>2026-08-09T08:20:36Z</time></trkpt>
      <trkpt lat="41.174996" lon="-8.678722"><ele>56.9</ele><time>2026-08-09T08:20:48Z</time></trkpt>
      <trkpt lat="41.175000" lon="-8.679000"><ele>57.5</ele><time>2026-08-09T08:21:00Z</time></trkpt>
      <trkpt lat="41.174996" lon="-8.679278"><ele>58.1</ele><time>2026-08-09T08:21:12Z</time></trkpt>
      <trkpt lat="41.174985" lon="-8.679556"><ele>58.7</ele><time>2026-08-09T08:21:24Z</time></trkpt>
      <trkpt lat="41.174967" lon="-8.679833"><ele>59.3</ele><time>2026-08-09T08:21:36Z</time></trkpt>
      <trkpt lat="41.174942" lon="-8.680109"><ele>59.9</ele><time>2026-08-09T08:21:48Z</time></trkpt>
      <trkpt lat="41.174909" lon="-8.680384"><ele>60.5</ele><time>2026-08-09T08:22:00Z</time></trkpt>
      <trkpt lat="41.174869" lon="-8.680657"><ele>61.1</ele><time>2026-08-09T08:22:12Z</time></trkpt>
      <trkpt lat="41.174822" lon="-8.680928"><ele>61.7</ele><time>2026-08-09T08:22:24Z</time></trkpt>
      <trkpt lat="41.174768" lon="-8.681197"><ele>62.3</ele><time>2026-08-09T08:22:36Z</time></trkpt>
      <trkpt lat="41.174706" lon="-8.681463"><ele>62.9</ele><time>2026-08-09T08:22:48Z</time></trkpt>
      <trkpt lat="41.174638" lon="-8.681726"><ele>63.5</ele><time>2026-08-09T08:23:00Z</time></trkpt>
      <trkpt lat="41.174563" lon="-8.681986"><ele>64.1</ele><time>2026-08-09T08:23:12Z</time></trkpt>
      <trkpt lat="41.174481" lon="-8.682242"><ele>64.6</ele><time>2026-08-09T08:23:24Z</time></trkpt>
      <trkpt lat="41.174393" lon="-8.682494"><ele>65.2</ele><time>2026-08-09T08:23:36Z</time></trkpt>
      <trkpt lat="41.174298" lon="-8.682742"><ele>65.7</ele><time>2026-08-09T08:23:48Z</time></trkpt>
      <trkpt lat="41.174196" lon="-8.682985"><ele>66.2</ele><time>2026-08-09T08:24:00Z</time></trkpt>
      <trkpt lat="41.174088" lon="-8.683224"><ele>66.8</ele><time>2026-08-09T08:24:12Z</time></trkpt>
      <trkpt lat="41.173974" lon="-8.683457"><ele>67.3</ele><time>2026-08-09T08:24:24Z</time></trkpt>
      <trkpt lat="41.173854" lon="-8.683685"><ele>67.8</ele><time>2026-08-09T08:24:36Z</time></trkpt>
      <trkpt lat="41.173728" lon="-8.683907"><ele>68.3</ele><time>2026-08-09T08:24:48Z</time></trkpt>
      <trkpt lat="41.173596" lon="-8.684123"><ele>68.7</ele><time>2026-08-09T08:25:00Z</time></trkpt>
      <trkpt lat="41.173459" lon="-8.684333"><ele>69.2</ele><time>2026-08-09T08:25:12Z</time></trkpt>
      <trkpt lat="41.173316" lon="-8.684537"><ele>69.7</ele><time>2026-08-09T08:25:24Z</time></trkpt>
      <trkpt lat="41.173168" lon="-8.684734"><ele>70.1</ele><time>2026-08-09T08:25:36Z</time></trkpt>
      <trkpt lat="41.173015" lon="-8.684923"><ele>70.5</ele><time>2026-08-09T08:25:48Z</time></trkpt>
      <trkpt lat="41.172857" lon="-8.685106"><ele>70.9</ele><time>2026-08-09T08:26:00Z</time></trkpt>
      <trkpt lat="41.172694" lon="-8.685281"><ele>71.3</ele><time>2026-08-09T08:26:12Z</time></trkpt>
      <trkpt lat="41.172527" lon="-8.685448"><ele>71.7</ele><time>2026-08-09T08:26:24Z</time></trkpt>
      <trkpt lat="41.172355" lon="-8.685608"><ele>72.0</ele><time>2026-08-09T08:26:36Z</time></trkpt>
      <trkpt lat="41.172180" lon="-8.685759"><ele>72.3</ele><time>2026-08-09T08:26:48Z</time></trkpt>
      <trkpt lat="41.172000" lon="-8.685903"><ele>72.7</ele><time>2026-08-09T08:27:00Z</time></trkpt>
      <trkpt lat="41.171817" lon="-8.686038"><ele>73.0</ele><time>2026-08-09T08:27:12Z</time></trkpt>
      <trkpt lat="41.171630" lon="-8.686164"><ele>73.2</ele><time>2026-08-09T08:27:24Z</time></trkpt>
      <trkpt lat="41.171440" lon="-8.686281"><ele>73.5</ele><time>2026-08-09T08:27:36Z</time></trkpt>
      <trkpt lat="41.171248" lon="-8.686390"><ele>73.7</ele><time>2026-08-09T08:27:48Z</time></trkpt>
      <trkpt lat="41.171052" lon="-8.686490"><ele>73.9</ele><time>2026-08-09T08:28:00Z</time></trkpt>
      <trkpt lat="41.170854" lon="-8.686580"><ele>74.1</ele><time>2026-08-09T08:28:12Z</time></trkpt>
      <trkpt lat="41.170654" lon="-8.686662"><ele>74.3</ele><time>2026-08-09T08:28:24Z</time></trkpt>
      <trkpt lat="41.170452" lon="-8.686734"><ele>74.5</ele><time>2026-08-09T08:28:36Z</time></trkpt>
      <trkpt lat="41.170247" lon="-8.686796"><ele>74.6</ele><time>2026-08-09T08:28:48Z</time></trkpt>
      <trkpt lat="41.170042" lon="-8.686849"><ele>74.7</ele><time>2026-08-09T08:29:00Z</time></trkpt>
      <trkpt lat="41.169835" lon="-8.686893"><ele>74.8</ele><time>2026-08-09T08:29:12Z</time></trkpt>
      <trkpt lat="41.169627" lon="-8.686927"><ele>74.9</ele><time>2026-08-09T08:29:24Z</time></trkpt>
      <trkpt lat="41.169419" lon="-8.686951"><ele>75.0</ele><time>2026-08-09T08:29:36Z</time></trkpt>
      <trkpt lat="41.169209" lon="-8.686966"><ele>75.0</ele><time>2026-08-09T08:29:48Z</time></trkpt>
      <trkpt lat="41.169000" lon="-8.686971"><ele>75.0</ele><time>2026-08-09T08:30:00Z</time></trkpt>
      <trkpt lat="41.168791" lon="-8.686966"><ele>75.0</ele><time>2026-08-09T08:30:12Z</time></trkpt>
      <trkpt lat="41.168581" lon="-8.686951"><ele>75.0</ele><time>2026-08-09T08:30:24Z</time></trkpt>
      <trkpt lat="41.168373" lon="-8.686927"><ele>74.9</ele><time>2026-08-09T08:30:36Z</time></trkpt>
      <trkpt lat="41.168165" lon="-8.686893"><ele>74.8</ele><time>2026-08-09T08:30:48Z</time></trkpt>
      <trkpt lat="41.167958" lon="-8.686849"><ele>74.7</ele><time>2026-08-09T08:31:00Z</time></trkpt>
      <trkpt lat="41.167753" lon="-8.686796"><ele>74.6</ele><time>2026-08-09T08:31:12Z</time></trkpt>
      <trkpt lat="41.167548" lon="-8.686734"><ele>74.5</ele><time>2026-08-09T08:31:24Z</time></trkpt>
      <trkpt lat="41.167346" lon="-8.686662"><ele>74.3</ele><time>2026-08-09T08:31:36Z</time></trkpt>
      <trkpt lat="41.167146" lon="-8.686580"><ele>74.1</ele><time>2026-08-09T08:31:48Z</time></trkpt>
      <trkpt lat="41.166948" lon="-8.686490"><ele>73.9</ele><time>2026-08-09T08:32:00Z</time></trkpt>
      <trkpt lat="41.166752" lon="-8.686390"><ele>73.7</ele><time>2026-08-09T08:32:12Z</time></trkpt>
      <trkpt lat="41.166560" lon="-8.686281"><ele>73.5</ele><time>2026-08-09T08:32:24Z</time></trkpt>
      <trkpt lat="41.166370" lon="-8.686164"><ele>73.2</ele><time>2026-08-09T08:32:36Z</time></trkpt>
      <trkpt lat="41.166183" lon="-8.686038"><ele>73.0</ele><time>2026-08-09T08:32:48Z</time></trkpt>
      <trkpt lat="41.166000" lon="-8.685903"><ele>72.7</ele><time>2026-08-09T08:33:00Z</time></trkpt>
      <trkpt lat="41.165820" lon="-8.685759"><ele>72.3</ele><time>2026-08-09T08:33:12Z</time></trkpt>
      <trkpt lat="41.165645" lon="-8.685608"><ele>72.0</ele><time>2026-08-09T08:33:24Z</time></trkpt>
      <trkpt lat="41.165473" lon="-8.685448"><ele>71.7</ele><time>2026-08-09T08:33:36Z</time></trkpt>
      <trkpt lat="41.165306" lon="-8.685281"><ele>71.3</ele><time>2026-08-09T08:33:48Z</time></trkpt>
      <trkpt lat="41.165143" lon="-8.685106"><ele>70.9</ele><time>2026-08-09T08:34:00Z</time></trkpt>
      <trkpt lat="41.164985" lon="-8.684923"><ele>70.5</ele><time>2026-08-09T08:34:12Z</time></trkpt>
      <trkpt lat="41.164832" lon="-8.684734"><ele>70.1</ele><time>2026-08-09T08:34:24Z</time></trkpt>
      <trkpt lat="41.164684" lon="-8.684537"><ele>69.7</ele><time>2026-08-09T08:34:36Z</time></trkpt>
      <trkpt lat="41.164541" lon="-8.684333"><ele>69.2</ele><time>2026-08-09T08:34:48Z</time></trkpt>
      <trkpt lat="41.164404" lon="-8.684123"><ele>68.7</ele><time>2026-08-09T08:35:00Z</time></trkpt>
      <trkpt lat="41.164272" lon="-8.683907"><ele>68.3</ele><time>2026-08-09T08:35:12Z</time></trkpt>
      <trkpt lat="41.164146" lon="-8.683685"><ele>67.8</ele><time>2026-08-09T08:35:24Z</time></trkpt>
      <trkpt lat="41.164026" lon="-8.683457"><ele>67.3</ele><time>2026-08-09T08:35:36Z</time></trkpt>
      <trkpt lat="41.163912" lon="-8.683224"><ele>66.8</ele><time>2026-08-09T08:35:48Z</time></trkpt>
      <trkpt lat="41.163804" lon="-8.682985"><ele>66.2</ele><time>2026-08-09T08:36:00Z</time></trkpt>
      <trkpt lat="41.163702" lon="-8.682742"><ele>65.7</ele><time>2026-08-09T08:36:12Z</time></trkpt>
      <trkpt lat="41.163607" lon="-8.682494"><ele>65.2</ele><time>2026-08-09T08:36:24Z</time></trkpt>
      <trkpt lat="41.163519" lon="-8.682242"><ele>64.6</ele><time>2026-08-09T08:36:36Z</time></trkpt>
      <trkpt lat="41.163437" lon="-8.681986"><ele>64.1</ele><time>2026-08-09T08:36:48Z</time></trkpt>
      <trkpt lat="41.163362" lon="-8.681726"><ele>63.5</ele><time>2026-08-09T08:37:00Z</time></trkpt>
      <trkpt lat="41.163294" lon="-8.681463"><ele>62.9</ele><time>2026-08-09T08:37:12Z</time></trkpt>
      <trkpt lat="41.163232" lon="-8.681197"><ele>62.3</ele><time>2026-08-09T08:37:24Z</time></trkpt>
      <trkpt lat="41.163178" lon="-8.680928"><ele>61.7</ele><time>2026-08-09T08:37:36Z</time></trkpt>
      <trkpt lat="41.163131" lon="-8.680657"><ele>61.1</ele><time>2026-08-09T08:37:48Z</time></trkpt>
      <trkpt lat="41.163091" lon="-8.680384"><ele>60.5</ele><time>2026-08-09T08:38:00Z</time></trkpt>
      <trkpt lat="41.163058" lon="-8.680109"><ele>59.9</ele><time>2026-08-09T08:38:12Z</time></trkpt>
      <trkpt lat="41.163033" lon="-8.679833"><ele>59.3</ele><time>2026-08-09T08:38:24Z</time></trkpt>
      <trkpt lat="41.163015" lon="-8.679556"><ele>58.7</ele><time>2026-08-09T08:38:36Z</time></trkpt>
      <trkpt lat="41.163004" lon="-8.679278"><ele>58.1</ele><time>2026-08-09T08:38:48Z</time></trkpt>
      <trkpt lat="41.163000" lon="-8.679000"><ele>57.5</ele><time>2026-08-09T08:39:00Z</time></trkpt>
      <trkpt lat="41.163004" lon="-8.678722"><ele>56.9</ele><time>2026-08-09T08:39:12Z</time></trkpt>
      <trkpt lat="41.163015" lon="-8.678444"><ele>56.3</ele><time>2026-08-09T08:39:24Z</time></trkpt>
      <trkpt lat="41.163033" lon="-8.678167"><ele>55.7</ele><time>2026-08-09T08:39:36Z</time></trkpt>
      <trkpt lat="41.163058" lon="-8.677891"><ele>55.1</ele><time>2026-08-09T08:39:48Z</time></trkpt>
      <trkpt lat="41.163091" lon="-8.677616"><ele>54.5</ele><time>2026-08-09T08:40:00Z</time></trkpt>
      <trkpt lat="41.163131" lon="-8.677343"><ele>53.9</ele><time>2026-08-09T08:40:12Z</time></trkpt>
      <trkpt lat="41.163178" lon="-8.677072"><ele>53.3</ele><time>2026-08-09T08:40:24Z</time></trkpt>
      <trkpt lat="41.163232" lon="-8.676803"><ele>52.7</ele><time>2026-08-09T08:40:36Z</time></trkpt>
      <trkpt lat="41.163294" lon="-8.676537"><ele>52.1</ele><time>2026-08-09T08:40:48Z</time></trkpt>
      <trkpt lat="41.163362" lon="-8.676274"><ele>51.5</ele><time>2026-08-09T08:41:00Z</time></trkpt>
      <trkpt lat="41.163437" lon="-8.676014"><ele>50.9</ele><time>2026-08-09T08:41:12Z</time></trkpt>
      <trkpt lat="41.163519" lon="-8.675758"><ele>50.4</ele><time>2026-08-09T08:41:24Z</time></trkpt>
      <trkpt lat="41.163607" lon="-8.675506"><ele>49.8</ele><time>2026-08-09T08:41:36Z</time></trkpt>
      <trkpt lat="41.163702" lon="-8.675258"><ele>49.3</ele><time>2026-08-09T08:41:48Z</time></trkpt>
      <trkpt lat="41.163804" lon="-8.675015"><ele>48.8</ele><time>2026-08-09T08:42:00Z</time></trkpt>
      <trkpt lat="41.163912" lon="-8.674776"><ele>48.2</ele><time>2026-08-09T08:42:12Z</time></trkpt>
      <trkpt lat="41.164026" lon="-8.674543"><ele>47.7</ele><time>2026-08-09T08:42:24Z</time></trkpt>
      <trkpt lat="41.164146" lon="-8.674315"><ele>47.2</ele><time>2026-08-09T08:42:36Z</time></trkpt>
      <trkpt lat="41.164272" lon="-8.674093"><ele>46.7</ele><time>2026-08-09T08:42:48Z</time></trkpt>
      <trkpt lat="41.164404" lon="-8.673877"><ele>46.3</ele><time>2026-08-09T08:43:00Z</time></trkpt>
      <trkpt lat="41.164541" lon="-8.673667"><ele>45.8</ele><time>2026-08-09T08:43:12Z</time></trkpt>
      <trkpt lat="41.164684" lon="-8.673463"><ele>45.3</ele><time>2026-08-09T08:43:24Z</time></trkpt>
      <trkpt lat="41.164832" lon="-8.673266"><ele>44.9</ele><time>2026-08-09T08:43:36Z</time></trkpt>
      <trkpt lat="41.164985" lon="-8.673077"><ele>44.5</ele><time>2026-08-09T08:43:48Z</time></trkpt>
      <trkpt lat="41.165143" lon="-8.672894"><ele>44.1</ele><time>2026-08-09T08:44:00Z</time></trkpt>
      <trkpt lat="41.165306" lon="-8.672719"><ele>43.7</ele><time>2026-08-09T08:44:12Z</time></trkpt>
      <trkpt lat="41.165473" lon="-8.672552"><ele>43.3</ele><time>2026-08-09T08:44:24Z</time></trkpt>
      <trkpt lat="41.165645" lon="-8.672392"><ele>43.0</ele><time>2026-08-09T08:44:36Z</time></trkpt>
      <trkpt lat="41.165820" lon="-8.672241"><ele>42.7</ele><time>2026-08-09T08:44:48Z</time></trkpt>
      <trkpt lat="41.166000" lon="-8.672097"><ele>42.3</ele><time>2026-08-09T08:45:00Z</time></trkpt>
      <trkpt lat="41.166183" lon="-8.671962"><ele>42.0</ele><time>2026-08-09T08:45:12Z</time></trkpt>
      <trkpt lat="41.166370" lon="-8.671836"><ele>41.8</ele><time>2026-08-09T08:45:24Z</time></trkpt>
      <trkpt lat="41.166560" lon="-8.671719"><ele>41.5</ele><time>2026-08-09T08:45:36Z</time></trkpt>
      <trkpt lat="41.166752" lon="-8.671610"><ele>41.3</ele><time>2026-08-09T08:45:48Z</time></trkpt>
      <trkpt lat="41.166948" lon="-8.671510"><ele>41.1</ele><time>2026-08-09T08:46:00Z</time></trkpt>
      <trkpt lat="41.167146" lon="-8.671420"><ele>40.9</ele><time>2026-08-09T08:46:12Z</time></trkpt>
      <trkpt lat="41.167346" lon="-8.671338"><ele>40.7</ele><time>2026-08-09T08:46:24Z</time></trkpt>
      <trkpt lat="41.167548" lon="-8.671266"><ele>40.5</ele><time>2026-08-09T08:46:36Z</time></trkpt>
      <trkpt lat="41.167753" lon="-8.671204"><ele>40.4</ele><time>2026-08-09T08:46:48Z</time></trkpt>
      <trkpt lat="41.167958" lon="-8.671151"><ele>40.3</ele><time>2026-08-09T08:47:00Z</time></trkpt>
      <trkpt lat="41.168165" lon="-8.671107"><ele>40.2</ele><time>2026-08-09T08:47:12Z</time></trkpt>
      <trkpt lat="41.168373" lon="-8.671073"><ele>40.1</ele><time>2026-08-09T08:47:24Z</time></trkpt>
      <trkpt lat="41.168581" lon="-8.671049"><ele>40.0</ele><time>2026-08-09T08:47:36Z</time></trkpt>
      <trkpt lat="41.168791" lon="-8.671034"><ele>40.0</ele><time>2026-08-09T08:47:48Z</time></trkpt>
    </trkseg>
  </trk>
</gpx>
