<?xml version="1.0" encoding="UTF-8"?>
<gpx xmlns="http://www.topografix.com/GPX/1/1" version="1.1" creator="eTrex 30">
  <trk>
    <name>Park loop</name>
    <trkseg>
      <trkpt lat="41.169000" lon="-8.667708"><ele>40.0</ele><time>2026-08-02T17:35:00Z</time></trkpt>
      <trkpt lat="41.169223" lon="-8.667712"><ele>40.0</ele><time>2026-08-02T17:35:09Z</time></trkpt>
      <trkpt lat="41.169445" lon="-8.667724"><ele>40.0</ele><time>2026-08-02T17:35:18Z</time></trkpt>
      <trkpt lat="41.169667" lon="-8.667743"><ele>40.1</ele><time>2026-08-02T17:35:27Z</time></trkpt>
      <trkpt lat="41.169888" lon="-8.667770"><ele>40.2</ele><time>2026-08-02T17:35:36Z</time></trkpt>
      <trkpt lat="41.170109" lon="-8.667805"><ele>40.2</ele><time>2026-08-02T17:35:45Z</time></trkpt>
      <trkpt lat="41.170330" lon="-8.667847"><ele>40.3</ele><time>2026-08-02T17:35:54Z</time></trkpt>
      <trkpt lat="41.170549" lon="-8.667897"><ele>40.5</ele><time>2026-08-02T17:36:03Z</time></trkpt>
      <trkpt lat="41.170767" lon="-8.667955"><ele>40.6</ele><time>2026-08-02T17:36:12Z</time></trkpt>
      <trkpt lat="41.170984" lon="-8.668020"><ele>40.8</ele><time>2026-08-02T17:36:21Z</time></trkpt>
      <trkpt lat="41.171200" lon="-8.668093"><ele>40.9</ele><time>2026-08-02T17:36:30Z</time></trkpt>
      <trkpt lat="41.171414" lon="-8.668173"><ele>41.1</ele><time>2026-08-02T17:36:39Z</time></trkpt>
      <trkpt lat="41.171627" lon="-8.668261"><ele>41.3</ele><time>2026-08-02T17:36:48Z</time></trkpt>
      <trkpt lat="41.171837" lon="-8.668356"><ele>41.6</ele><time>2026-08-02T17:36:57Z</time></trkpt>
      <trkpt lat="41.172046" lon="-8.668458"><ele>41.8</ele><time>2026-08-02T17:37:06Z</time></trkpt>
      <trkpt lat="41.172253" lon="-8.668568"><ele>42.1</ele><time>2026-08-02T17:37:15Z</time></trkpt>
      <trkpt lat="41.172457" lon="-8.668685"><ele>42.4</ele><time>2026-08-02T17:37:24Z</time></trkpt>
      <trkpt lat="41.172659" lon="-8.668808"><ele>42.7</ele><time>2026-08-02T17:37:33Z</time></trkpt>
      <trkpt lat="41.172859" lon="-8.668939"><ele>43.0</ele><time>2026-08-02T17:37:42Z</time></trkpt>
      <trkpt lat="41.173056" lon="-8.669077"><ele>43.3</ele><time>2026-08-02T17:37:51Z</time></trkpt>
      <trkpt lat="41.173250" lon="-8.669221"><ele>43.7</ele><time>2026-08-02T17:38:00Z</time></trkpt>
      <trkpt lat="41.173441" lon="-8.669372"><ele>44.1</ele><time>2026-08-02T17:38:09Z</time></trkpt>
      <trkpt lat="41.173629" lon="-8.669530"><ele>44.4</ele><time>2026-08-02T17:38:18Z</time></trkpt>
      <trkpt lat="41.173814" lon="-8.669694"><ele>44.8</ele><time>2026-08-02T17:38:27Z</time></trkpt>
      <trkpt lat="41.173996" lon="-8.669865"><ele>45.3</ele><time>2026-08-02T17:38:36Z</time></trkpt>
      <trkpt lat="41.174174" lon="-8.670042"><ele>45.7</ele><time>2026-08-02T17:38:45Z</time></trkpt>
      <trkpt lat="41.174349" lon="-8.670225"><ele>46.1</ele><time>2026-08-02T17:38:54Z</time></trkpt>
      <trkpt lat="41.174520" lon="-8.670414"><ele>46.6</ele><time>2026-08-02T17:39:03Z</time></trkpt>
      <trkpt lat="41.174688" lon="-8.670609"><ele>47.1</ele><time>2026-08-02T17:39:12Z</time></trkpt>
      <trkpt lat="41.174851" lon="-8.670809"><ele>47.6</ele><time>2026-08-02T17:39:21Z</time></trkpt>
      <trkpt lat="41.175010" lon="-8.671016"><ele>48.1</ele><time>2026-08-02T17:39:30Z</time></trkpt>
      <trkpt lat="41.175166" lon="-8.671227"><ele>48.6</ele><time>2026-08-02T17:39:39Z</time></trkpt>
      <trkpt lat="41.175317" lon="-8.671444"><ele>49.1</ele><time>2026-08-02T17:39:48Z</time></trkpt>
      <trkpt lat="41.175463" lon="-8.671667"><ele>49.6</ele><time>2026-08-02T17:39:57Z</time></trkpt>
      <trkpt lat="41.175606" lon="-8.671894"><ele>50.2</ele><time>2026-08-02T17:40:06Z</time></trkpt>
      <trkpt lat="41.175744" lon="-8.672126"><ele>50.8</ele><time>2026-08-02T17:40:15Z</time></trkpt>
      <trkpt lat="41.175877" lon="-8.672363"><ele>51.3</ele><time>2026-08-02T17:40:24Z</time></trkpt>
      <trkpt lat="41.176005" lon="-8.672604"><ele>51.9</ele><time>2026-08-02T17:40:33Z</time></trkpt>
      <trkpt lat="41.176129" lon="-8.672850"><ele>52.5</ele><time>2026-08-02T17:40:42Z</time></trkpt>
      <trkpt lat="41.176247" lon="-8.673100"><ele>53.1</ele><time>2026-08-02T17:40:51Z</time></trkpt>
      <trkpt lat="41.176361" lon="-8.673354"><ele>53.8</ele><time>2026-08-02T17:41:00Z</time></trkpt>
      <trkpt lat="41.176470" lon="-8.673612"><ele>54.4</ele><time>2026-08-02T17:41:09Z</time></trkpt>
      <trkpt lat="41.176574" lon="-8.673874"><ele>55.0</ele><time>2026-08-02T17:41:18Z</time></trkpt>
      <trkpt lat="41.176672" lon="-8.674139"><ele>55.7</ele><time>2026-08-02T17:41:27Z</time></trkpt>
      <trkpt lat="41.176765" lon="-8.674407"><ele>56.3</ele><time>2026-08-02T17:41:36Z</time></trkpt>
      <trkpt lat="41.176853" lon="-8.674679"><ele>57.0</ele><time>2026-08-02T17:41:45Z</time></trkpt>
      <trkpt lat="41.176935" lon="-8.674953"><ele>57.6</ele><time>2026-08-02T17:41:54Z</time></trkpt>
      <trkpt lat="41.177012" lon="-8.675231"><ele>58.3</ele><time>2026-08-02T17:42:03Z</time></trkpt>
      <trkpt lat="41.177084" lon="-8.675511"><ele>59.0</ele><time>2026-08-02T17:42:12Z</time></trkpt>
      <trkpt lat="41.177150" lon="-8.675793"><ele>59.7</ele><time>2026-08-02T17:42:21Z</time></trkpt>
      <trkpt lat="41.177210" lon="-8.676078"><ele>60.4</ele><time>2026-08-02T17:42:30Z</time></trkpt>
      <trkpt lat="41.177265" lon="-8.676364"><ele>61.1</ele><time>2026-08-02T17:42:39Z</time></trkpt>
      <trkpt lat="41.177314" lon="-8.676652"><ele>61.8</ele><time>2026-08-02T17:42:48Z</time></trkpt>
      <trkpt lat="41.177358" lon="-8.676942"><ele>62.5</ele><time>2026-08-02T17:42:57Z</time></trkpt>
      <trkpt lat="41.177395" lon="-8.677234"><ele>63.2</ele><time>2026-08-02T17:43:06Z</time></trkpt>
      <trkpt lat="41.177427" lon="-8.677526"><ele>63.9</ele><time>2026-08-02T17:43:15Z</time></trkpt>
      <trkpt lat="41.177453" lon="-8.677820"><ele>64.6</ele><time>2026-08-02T17:43:24Z</time></trkpt>
      <trkpt lat="41.177474" lon="-8.678114"><ele>65.3</ele><time>2026-08-02T17:43:33Z</time></trkpt>
      <trkpt lat="41.177488" lon="-8.678409"><ele>66.1</ele><time>2026-08-02T17:43:42Z</time></trkpt>
      <trkpt lat="41.177497" lon="-8.678704"><ele>66.8</ele><time>2026-08-02T17:43:51Z</time></trkpt>
      <trkpt lat="41.177500" lon="-8.679000"><ele>67.5</ele><time>2026-08-02T17:44:00Z</time></trkpt>
      <trkpt lat="41.177497" lon="-8.679296"><ele>68.2</ele><time>2026-08-02T17:44:09Z</time></trkpt>
      <trkpt lat="41.177488" lon="-8.679591"><ele>68.9</ele><time>2026-08-02T17:44:18Z</time></trkpt>
      <trkpt lat="41.177474" lon="-8.679886"><ele>69.7</ele><time>2026-08-02T17:44:27Z</time></trkpt>
      <trkpt lat="41.177453" lon="-8.680180"><ele>70.4</ele><time>2026-08-02T17:44:36Z</time></trkpt>
      <trkpt lat="41.177427" lon="-8.680474"><ele>71.1</ele><time>2026-08-02T17:44:45Z</time></trkpt>
      <trkpt lat="41.177395" lon="-8.680766"><ele>71.8</ele><time>2026-08-02T17:44:54Z</time></trkpt>
      <trkpt lat="41.177358" lon="-8.681058"><ele>72.5</ele><time>2026-08-02T17:45:03Z</time></trkpt>
      <trkpt lat="41.177314" lon="-8.681348"><ele>73.2</ele><time>2026-08-02T17:45:12Z</time></trkpt>
      <trkpt lat="41.177265" lon="-8.681636"><ele>73.9</ele><time>2026-08-02T17:45:21Z</time></trkpt>
      <trkpt lat="41.177210" lon="-8.681922"><ele>74.6</ele><time>2026-08-02T17:45:30Z</time></trkpt>
      <trkpt lat="41.177150" lon="-8.682207"><ele>75.3</ele><time>2026-08-02T17:45:39Z</time></trkpt>
      <trkpt lat="41.177084" lon="-8.682489"><ele>76.0</ele><time>2026-08-02T17:45:48Z</time></trkpt>
      <trkpt lat="41.177012" lon="-8.682769"><ele>76.7</ele><time>2026-08-02T17:45:57Z</time></trkpt>
      <trkpt lat="41.176935" lon="-8.683047"><ele>77.4</ele><time>2026-08-02T17:46:06Z</time></trkpt>
      <trkpt lat="41.176853" lon="-8.683321"><ele>78.0</ele><time>2026-08-02T17:46:15Z</time></trkpt>
      <trkpt lat="41.176765" lon="-8.683593"><ele>78.7</ele><time>2026-08-02T17:46:24Z</time></trkpt>
      <trkpt lat="41.176672" lon="-8.683861"><ele>79.3</ele><time>2026-08-02T17:46:33Z</time></trkpt>
      <trkpt lat="41.176574" lon="-8.684126"><ele>80.0</ele><time>2026-08-02T17:46:42Z</time></trkpt>
      <trkpt lat="41.176470" lon="-8.684388"><ele>80.6</ele><time>2026-08-02T17:46:51Z</time></trkpt>
      <trkpt lat="41.176361" lon="-8.684646"><ele>81.2</ele><time>2026-08-02T17:47:00Z</time></trkpt>
      <trkpt lat="41.176247" lon="-8.684900"><ele>81.9</ele><time>2026-08-02T17:47:09Z</time></trkpt>
      <trkpt lat="41.176129" lon="-8.685150"><ele>82.5</ele><time>2026-08-02T17:47:18Z</time></trkpt>
      <trkpt lat="41.176005" lon="-8.685396"><ele>83.1</ele><time>2026-08-02T17:47:27Z</time></trkpt>
      <trkpt lat="41.175877" lon="-8.685637"><ele>83.7</ele><time>2026-08-02T17:47:36Z</time></trkpt>
      <trkpt lat="41.175744" lon="-8.685874"><ele>84.2</ele><time>2026-08-02T17:47:45Z</time></trkpt>
      <trkpt lat="41.175606" lon="-8.686106"><ele>84.8</ele><time>2026-08-02T17:47:54Z</time></trkpt>
      <trkpt lat="41.175463" lon="-8.686333"><ele>85.4</ele><time>2026-08-02T17:48:03Z</time></trkpt>
      <trkpt lat="41.175317" lon="-8.686556"><ele>85.9</ele><time>2026-08-02T17:48:12Z</time></trkpt>
      <trkpt lat="41.175166" lon="-8.686773"><ele>86.4</ele><time>2026-08-02T17:48:21Z</time></trkpt>
      <trkpt lat="41.175010" lon="-8.686984"><ele>86.9</ele><time>2026-08-02T17:48:30Z</time></trkpt>
      <trkpt lat="41.174851" lon="-8.687191"><ele>87.4</ele><time>2026-08-02T17:48:39Z</time></trkpt>
      <trkpt lat="41.174688" lon="-8.687391"><ele>87.9</ele><time>2026-08-02T17:48:48Z</time></trkpt>
      <trkpt lat="41.174520" lon="-8.687586"><ele>88.4</ele><time>2026-08-02T17:48:57Z</time></trkpt>
      <trkpt lat="41.174349" lon="-8.687775"><ele>88.9</ele><time>2026-08-02T17:49:06Z</time></trkpt>
      <trkpt lat="41.174174" lon="-8.687958"><ele>89.3</ele><time>2026-08-02T17:49:15Z</time></trkpt>
      <trkpt lat="41.173996" lon="-8.688135"><ele>89.7</ele><time>2026-08-02T17:49:24Z</time></trkpt>
      <trkpt lat="41.173814" lon="-8.688306"><ele>90.2</ele><time>2026-08-02T17:49:33Z</time></trkpt>
      <trkpt lat="41.173629" lon="-8.688470"><ele>90.6</ele><time>2026-08-02T17:49:42Z</time></trkpt>
      <trkpt lat="41.173441" lon="-8.688628"><ele>90.9</ele><time>2026-08-02T17:49:51Z</time></trkpt>
      <trkpt lat="41.173250" lon="-8.688779"><ele>91.3</ele><time>2026-08-02T17:50:00Z</time></trkpt>
      <trkpt lat="41.173056" lon="-8.688923"><ele>91.7</ele><time>2026-08-02T17:50:09Z</time></trkpt>
      <trkpt lat="41.172859" lon="-8.689061"><ele>92.0</ele><time>2026-08-02T17:50:18Z</time></trkpt>
      <trkpt lat="41.172659" lon="-8.689192"><ele>92.3</ele><time>2026-08-02T17:50:27Z</time></trkpt>
      <trkpt lat="41.172457" lon="-8.689315"><ele>92.6</ele><time>2026-08-02T17:50:36Z</time></trkpt>
      <trkpt lat="41.172253" lon="-8.689432"><ele>92.9</ele><time>2026-08-02T17:50:45Z</time></trkpt>
      <trkpt lat="41.172046" lon="-8.689542"><ele>93.2</ele><time>2026-08-02T17:50:54Z</time></trkpt>
      <trkpt lat="41.171837" lon="-8.689644"><ele>93.4</ele><time>2026-08-02T17:51:03Z</time></trkpt>
      <trkpt lat="41.171627" lon="-8.689739"><ele>93.7</ele><time>2026-08-02T17:51:12Z</time></trkpt>
      <trkpt lat="41.171414" lon="-8.689827"><ele>93.9</ele><time>2026-08-02T17:51:21Z</time></trkpt>
      <trkpt lat="41.171200" lon="-8.689907"><ele>94.1</ele><time>2026-08-02T17:51:30Z</time></trkpt>
      <trkpt lat="41.170984" lon="-8.689980"><ele>94.2</ele><time>2026-08-02T17:51:39Z</time></trkpt>
      <trkpt lat="41.170767" lon="-8.690045"><ele>94.4</ele><time>2026-08-02T17:51:48Z</time></trkpt>
      <trkpt lat="41.170549" lon="-8.690103"><ele>94.5</ele><time>2026-08-02T17:51:57Z</time></trkpt>
      <trkpt lat="41.170330" lon="-8.690153"><ele>94.7</ele><time>2026-08-02T17:52:06Z</time></trkpt>
      <trkpt lat="41.170109" lon="-8.690195"><ele>94.8</ele><time>2026-08-02T17:52:15Z</time></trkpt>
      <trkpt lat="41.169888" lon="-8.690230"><ele>94.8</ele><time>2026-08-02T17:52:24Z</time></trkpt>
      <trkpt lat="41.169667" lon="-8.690257"><ele>94.9</ele><time>2026-08-02T17:52:33Z</time></trkpt>
      <trkpt lat="41.169445" lon="-8.690276"><ele>95.0</ele><time>2026-08-02T17:52:42Z</time></trkpt>
      <trkpt lat="41.169223" lon="-8.690288"><ele>95.0</ele><time>2026-08-02T17:52:51Z</time></trkpt>
      <trkpt lat="41.169000" lon="-8.690292"><ele>95.0</ele><time>2026-08-02T17:53:00Z</time></trkpt>
      <trkpt lat="41.168777" lon="-8.690288"><ele>95.0</ele><time>2026-08-02T17:53:09Z</time></trkpt>
      <trkpt lat="41.168555" lon="-8.690276"><ele>95.0</ele><time>2026-08-02T17:53:18Z</time></trkpt>
      <trkpt lat="41.168333" lon="-8.690257"><ele>94.9</ele><time>2026-08-02T17:53:27Z</time></trkpt>
      <trkpt lat="41.168112" lon="-8.690230"><ele>94.8</ele><time>2026-08-02T17:53:36Z</time></trkpt>
      <trkpt lat="41.167891" lon="-8.690195"><ele>94.8</ele><time>2026-08-02T17:53:45Z</time></trkpt>
      <trkpt lat="41.167670" lon="-8.690153"><ele>94.7</ele><time>2026-08-02T17:53:54Z</time></trkpt>
      <trkpt lat="41.167451" lon="-8.690103"><ele>94.5</ele><time>2026-08-02T17:54:03Z</time></trkpt>
      <trkpt lat="41.167233" lon="-8.690045"><ele>94.4</ele><time>2026-08-02T17:54:12Z</time></trkpt>
      <trkpt lat="41.167016" lon="-8.689980"><ele>94.2</ele><time>2026-08-02T17:54:21Z</time></trkpt>
      <trkpt lat="41.166800" lon="-8.689907"><ele>94.1</ele><time>2026-08-02T17:54:30Z</time></trkpt>
      <trkpt lat="41.166586" lon="-8.689827"><ele>93.9</ele><time>2026-08-02T17:54:39Z</time></trkpt>
      <trkpt lat="41.166373" lon="-8.689739"><ele>93.7</ele><time>2026-08-02T17:54:48Z</time></trkpt>
      <trkpt lat="41.166163" lon="-8.689644"><ele>93.4</ele><time>2026-08-02T17:54:57Z</time></trkpt>
      <trkpt lat="41.165954" lon="-8.689542"><ele>93.2</ele><time>2026-08-02T17:55:06Z</time></trkpt>
      <trkpt lat="41.165747" lon="-8.689432"><ele>92.9</ele><time>2026-08-02T17:55:15Z</time></trkpt>
      <trkpt lat="41.165543" lon="-8.689315"><ele>92.6</ele><time>2026-08-02T17:55:24Z</time></trkpt>
      <trkpt lat="41.165341" lon="-8.689192"><ele>92.3</ele><time>2026-08-02T17:55:33Z</time></trkpt>
      <trkpt lat="41.165141" lon="-8.689061"><ele>92.0</ele><time>2026-08-02T17:55:42Z</time></trkpt>
      <trkpt lat="41.164944" lon="-8.688923"><ele>91.7</ele><time>2026-08-02T17:55:51Z</time></trkpt>
      <trkpt lat="41.164750" lon="-8.688779"><ele>91.3</ele><time>2026-08-02T17:56:00Z</time></trkpt>
      <trkpt lat="41.164559" lon="-8.688628"><ele>90.9</ele><time>2026-08-02T17:56:09Z</time></trkpt>
      <trkpt lat="41.164371" lon="-8.688470"><ele>90.6</ele><time>2026-08-02T17:56:18Z</time></trkpt>
      <trkpt lat="41.164186" lon="-8.688306"><ele>90.2</ele><time>2026-08-02T17:56:27Z</time></trkpt>
      <trkpt lat="41.164004" lon="-8.688135"><ele>89.7</ele><time>2026-08-02T17:56:36Z</time></trkpt>
      <trkpt lat="41.163826" lon="-8.687958"><ele>89.3</ele><time>2026-08-02T17:56:45Z</time></trkpt>
      <trkpt lat="41.163651" lon="-8.687775"><ele>88.9</ele><time>2026-08-02T17:56:54Z</time></trkpt>
      <trkpt lat="41.163480" lon="-8.687586"><ele>88.4</ele><time>2026-08-02T17:57:03Z</time></trkpt>
      <trkpt lat="41.163312" lon="-8.687391"><ele>87.9</ele><time>2026-08-02T17:57:12Z</time></trkpt>
      <trkpt lat="41.163149" lon="-8.687191"><ele>87.4</ele><time>2026-08-02T17:57:21Z</time></trkpt>
      <trkpt lat="41.162990" lon="-8.686984"><ele>86.9</ele><time>2026-08-02T17:57:30Z</time></trkpt>
      <trkpt lat="41.162834" lon="-8.686773"><ele>86.4</ele><time>2026-08-02T17:57:39Z</time></trkpt>
      <trkpt lat="41.162683" lon="-8.686556"><ele>85.9</ele><time>2026-08-02T17:57:48Z</time></trkpt>
      <trkpt lat="41.162537" lon="-8.686333"><ele>85.4</ele><time>2026-08-02T17:57:57Z</time></trkpt>
      <trkpt lat="41.162394" lon="-8.686106"><ele>84.8</ele><time>2026-08-02T17:58:06Z</time></trkpt>
      <trkpt lat="41.162256" lon="-8.685874"><ele>84.2</ele><time>2026-08-02T17:58:15Z</time></trkpt>
      <trkpt lat="41.162123" lon="-8.685637"><ele>83.7</ele><time>2026-08-02T17:58:24Z</time></trkpt>
      <trkpt lat="41.161995" lon="-8.685396"><ele>83.1</ele><time>2026-08-02T17:58:33Z</time></trkpt>
      <trkpt lat="41.161871" lon="-8.685150"><ele>82.5</ele><time>2026-08-02T17:58:42Z</time></trkpt>
      <trkpt lat="41.161753" lon="-8.684900"><ele>81.9</ele><time>2026-08-02T17:58:51Z</time></trkpt>
      <trkpt lat="41.161639" lon="-8.684646"><ele>81.3</ele><time>2026-08-02T17:59:00Z</time></trkpt>
      <trkpt lat="41.161530" lon="-8.684388"><ele>80.6</ele><time>2026-08-02T17:59:09Z</time></trkpt>
      <trkpt lat="41.161426" lon="-8.684126"><ele>80.0</ele><time>2026-08-02T17:59:18Z</time></trkpt>
      <trkpt lat="41.161328" lon="-8.683861"><ele>79.3</ele><time>2026-08-02T17:59:27Z</time></trkpt>
      <trkpt lat="41.161235" lon="-8.683593"><ele>78.7</ele><time>2026-08-02T17:59:36Z</time></trkpt>
      <trkpt lat="41.161147" lon="-8.683321"><ele>78.0</ele><time>2026-08-02T17:59:45Z</time></trkpt>
      <trkpt lat="41.161065" lon="-8.683047"><ele>77.4</ele><time>2026-08-02T17:59:54Z</time></trkpt>
      <trkpt lat="41.160988" lon="-8.682769"><ele>76.7</ele><time>2026-08-02T18:00:03Z</time></trkpt>
      <trkpt lat="41.160916" lon="-8.682489"><ele>76.0</ele><time>2026-08-02T18:00:12Z</time></trkpt>
      <trkpt lat="41.160850" lon="-8.682207"><ele>75.3</ele><time>2026-08-02T18:00:21Z</time></trkpt>
      <trkpt lat="41.160790" lon="-8.681922"><ele>74.6</ele><time>2026-08-02T18:00:30Z</time></trkpt>
      <trkpt lat="41.160735" lon="-8.681636"><ele>73.9</ele><time>2026-08-02T18:00:39Z</time></trkpt>
      <trkpt lat="41.160686" lon="-8.681348"><ele>73.2</ele><time>2026-08-02T18:00:48Z</time></trkpt>
      <trkpt lat="41.160642" lon="-8.681058"><ele>72.5</ele><time>2026-08-02T18:00:57Z</time></trkpt>
      <trkpt lat="41.160605" lon="-8.680766"><ele>71.8</ele><time>2026-08-02T18:01:06Z</time></trkpt>
      <trkpt lat="41.160573" lon="-8.680474"><ele>71.1</ele><time>2026-08-02T18:01:15Z</time></trkpt>
      <trkpt lat="41.160547" lon="-8.680180"><ele>70.4</ele><time>2026-08-02T18:01:24Z</time></trkpt>
      <trkpt lat="41.160526" lon="-8.679886"><ele>69.7</ele><time>2026-08-02T18:01:33Z</time></trkpt>
      <trkpt lat="41.160512" lon="-8.679591"><ele>68.9</ele><time>2026-08-02T18:01:42Z</time></trkpt>
      <trkpt lat="41.160503" lon="-8.679296"><ele>68.2</ele><time>2026-08-02T18:01:51Z</time></trkpt>
      <trkpt lat="41.160500" lon="-8.679000"><ele>67.5</ele><time>2026-08-02T18:02:00Z</time></trkpt>
      <trkpt lat="41.160503" lon="-8.678704"><ele>66.8</ele><time>2026-08-02T18:02:09Z</time></trkpt>
      <trkpt lat="41.160512" lon="-8.678409"><ele>66.1</ele><time>2026-08-02T18:02:18Z</time></trkpt>
      <trkpt lat="41.160526" lon="-8.678114"><ele>65.3</ele><time>2026-08-02T18:02:27Z</time></trkpt>
      <trkpt lat="41.160547" lon="-8.677820"><ele>64.6</ele><time>2026-08-02T18:02:36Z</time></trkpt>
      <trkpt lat="41.160573" lon="-8.677526"><ele>63.9</ele><time>2026-08-02T18:02:45Z</time></trkpt>
      <trkpt lat="41.160605" lon="-8.677234"><ele>63.2</ele><time>2026-08-02T18:02:54Z</time></trkpt>
      <trkpt lat="41.160642" lon="-8.676942"><ele>62.5</ele><time>2026-08-02T18:03:03Z</time></trkpt>
      <trkpt lat="41.160686" lon="-8.676652"><ele>61.8</ele><time>2026-08-02T18:03:12Z</time></trkpt>
      <trkpt lat="41.160735" lon="-8.676364"><ele>61.1</ele><time>2026-08-02T18:03:21Z</time></trkpt>
      <trkpt lat="41.160790" lon="-8.676078"><ele>60.4</ele><time>2026-08-02T18:03:30Z</time></trkpt>
      <trkpt lat="41.160850" lon="-8.675793"><ele>59.7</ele><time>2026-08-02T18:03:39Z</time></trkpt>
      <trkpt lat="41.160916" lon="-8.675511"><ele>59.0</ele><time>2026-08-02T18:03:48Z</time></trkpt>
      <trkpt lat="41.160988" lon="-8.675231"><ele>58.3</ele><time>2026-08-02T18:03:57Z</time></trkpt>
      <trkpt lat="41.161065" lon="-8.674953"><ele>57.6</ele><time>2026-08-02T18:04:06Z</time></trkpt>
      <trkpt lat="41.161147" lon="-8.674679"><ele>57.0</ele><time>2026-08-02T18:04:15Z</time></trkpt>
      <trkpt lat="41.161235" lon="-8.674407"><ele>56.3</ele><time>2026-08-02T18:04:24Z</time></trkpt>
      <trkpt lat="41.161328" lon="-8.674139"><ele>55.7</ele><time>2026-08-02T18:04:33Z</time></trkpt>
      <trkpt lat="41.161426" lon="-8.673874"><ele>55.0</ele><time>2026-08-02T18:04:42Z</time></trkpt>
      <trkpt lat="41.161530" lon="-8.673612"><ele>54.4</ele><time>2026-08-02T18:04:51Z</time></trkpt>
      <trkpt lat="41.161639" lon="-8.673354"><ele>53.8</ele><time>2026-08-02T18:05:00Z</time></trkpt>
      <trkpt lat="41.161753" lon="-8.673100"><ele>53.1</ele><time>2026-08-02T18:05:09Z</time></trkpt>
      <trkpt lat="41.161871" lon="-8.672850"><ele>52.5</ele><time>2026-08-02T18:05:18Z</time></trkpt>
      <trkpt lat="41.161995" lon="-8.672604"><ele>51.9</ele><time>2026-08-02T18:05:27Z</time></trkpt>
      <trkpt lat="41.162123" lon="-8.672363"><ele>51.3</ele><time>2026-08-02T18:05:36Z</time></trkpt>
      <trkpt lat="41.162256" lon="-8.672126"><ele>50.8</ele><time>2026-08-02T18:05:45Z</time></trkpt>
      <trkpt lat="41.162394" lon="-8.671894"><ele>50.2</ele><time>2026-08-02T18:05:54Z</time></trkpt>
      <trkpt lat="41.162537" lon="-8.671667"><ele>49.6</ele><time>2026-08-02T18:06:03Z</time></trkpt>
      <trkpt lat="41.162683" lon="-8.671444"><ele>49.1</ele><time>2026-08-02T18:06:12Z</time></trkpt>
      <trkpt lat="41.162834" lon="-8.671227"><ele>48.6</ele><time>2026-08-02T18:06:21Z</time></trkpt>
      <trkpt lat="41.162990" lon="-8.671016"><ele>48.1</ele><time>2026-08-02T18:06:30Z</time></trkpt>
      <trkpt lat="41.163149" lon="-8.670809"><ele>47.6</ele><time>2026-08-02T18:06:39Z</time></trkpt>
      <trkpt lat="41.163312" lon="-8.670609"><ele>47.1</ele><time>2026-08-02T18:06:48Z</time></trkpt>
      <trkpt lat="41.163480" lon="-8.670414"><ele>46.6</ele><time>2026-08-02T18:06:57Z</time></trkpt>
      <trkpt lat="41.163651" lon="-8.670225"><ele>46.1</ele><time>2026-08-02T18:07:06Z</time></trkpt>
      <trkpt lat="41.163826" lon="-8.670042"><ele>45.7</ele><time>2026-08-02T18:07:15Z</time></trkpt>
      <trkpt lat="41.164004" lon="-8.669865"><ele>45.3</ele><time>2026-08-02T18:07:24Z</time></trkpt>
      <trkpt lat="41.164186" lon="-8.669694"><ele>44.8</ele><time>2026-08-02T18:07:33Z</time></trkpt>
      <trkpt lat="41.164371" lon="-8.669530"><ele>44.4</ele><time>2026-08-02T18:07:42Z</time></trkpt>
      <trkpt lat="41.164559" lon="-8.669372"><ele>44.1</ele><time>2026-08-02T18:07:51Z</time></trkpt>
      <trkpt lat="41.164750" lon="-8.669221"><ele>43.7</ele><time>2026-08-02T18:08:00Z</time></trkpt>
      <trkpt lat="41.164944" lon="-8.669077"><ele>43.3</ele><time>2026-08-02T18:08:09Z</time></trkpt>
      <trkpt lat="41.165141" lon="-8.668939"><ele>43.0</ele><time>2026-08-02T18:08:18Z</time></trkpt>
      <trkpt lat="41.165341" lon="-8.668808"><ele>42.7</ele><time>2026-08-02T18:08:27Z</time></trkpt>
      <trkpt lat="41.165543" lon="-8.668685"><ele>42.4</ele><time>2026-08-02T18:08:36Z</time></trkpt>
      <trkpt lat="41.165747" lon="-8.668568"><ele>42.1</ele><time>2026-08-02T18:08:45Z</time></trkpt>
      <trkpt lat="41.165954" lon="-8.668458"><ele>41.8</ele><time>2026-08-02T18:08:54Z</time></trkpt>
      <trkpt lat="41.166163" lon="-8.668356"><ele>41.6</ele><time>2026-08-02T18:09:03Z</time></trkpt>
      <trkpt lat="41.166373" lon="-8.668261"><ele>41.3</ele><time>2026-08-02T18:09:12Z</time></trkpt>
      <trkpt lat="41.166586" lon="-8.668173"><ele>41.1</ele><time>2026-08-02T18:09:21Z</time></trkpt>
      <trkpt lat="41.166800" lon="-8.668093"><ele>40.9</ele><time>2026-08-02T18:09:30Z</time></trkpt>
      <trkpt lat="41.167016" lon="-8.668020"><ele>40.8</ele><time>2026-08-02T18:09:39Z</time></trkpt>
      <trkpt lat="41.167233" lon="-8.667955"><ele>40.6</ele><time>2026-08-02T18:09:48Z</time></trkpt>
      <trkpt lat="41.167451" lon="-8.667897"><ele>40.5</ele><time>2026-08-02T18:09:57Z</time></trkpt>
      <trkpt lat="41.167670" lon="-8.667847"><ele>40.3</ele><time>2026-08-02T18:10:06Z</time></trkpt>
      <trkpt lat="41.167891" lon="-8.667805"><ele>40.2</ele><time>2026-08-02T18:10:15Z</time></trkpt>
      <trkpt lat="41.168112" lon="-8.667770"><ele>40.2</ele><time>2026-08-02T18:10:24Z</time></trkpt>
      <trkpt lat="41.168333" lon="-8.667743"><ele>40.1</ele><time>2026-08-02T18:10:33Z</time></trkpt>
      <trkpt lat="41.168555" lon="-8.667724"><ele>40.0</ele><time>2026-08-02T18:10:42Z</time></trkpt>
      <trkpt lat="41.168777" lon="-8.667712"><ele>40.0</ele><time>2026-08-02T18:10:51Z</time></trkpt>
    </trkseg>
  </trk>
</gpx>
