<?xml version="1.0" encoding="UTF-8"?>
<gpx version="1.1" creator="ambit-app kailash_tracklog.py">
  <trk><name>Kailash TrackLog</name><trkseg>
    <trkpt lat="50.6238686" lon="3.0557171"><time>2026-08-10T16:57:00Z</time></trkpt>
    <trkpt lat="50.6236590" lon="3.0554787"><time>2026-08-10T16:58:00Z</time></trkpt>
    <trkpt lat="50.6233258" lon="3.0554820"><time>2026-08-10T16:58:00Z</time></trkpt>
    <trkpt lat="50.6234249" lon="3.0550344"><time>2026-08-10T16:59:00Z</time></trkpt>
    <trkpt lat="50.6236728" lon="3.0542907"><time>2026-08-10T16:59:00Z</time></trkpt>
    <trkpt lat="50.6236427" lon="3.0535993"><time>2026-08-10T17:00:00Z</time></trkpt>
    <trkpt lat="50.6235286" lon="3.0531167"><time>2026-08-10T17:00:00Z</time></trkpt>
    <trkpt lat="50.6235728" lon="3.0526048"><time>2026-08-10T17:01:00Z</time></trkpt>
    <trkpt lat="50.6235756" lon="3.0520047"><time>2026-08-10T17:01:00Z</time></trkpt>
    <trkpt lat="50.6234514" lon="3.0514424"><time>2026-08-10T17:02:00Z</time></trkpt>
    <trkpt lat="50.6232799" lon="3.0508675"><time>2026-08-10T17:02:00Z</time></trkpt>
    <trkpt lat="50.6230271" lon="3.0503886"><time>2026-08-10T17:03:00Z</time></trkpt>
    <trkpt lat="50.6229039" lon="3.0497732"><time>2026-08-10T17:03:00Z</time></trkpt>
    <trkpt lat="50.6227875" lon="3.0492221"><time>2026-08-10T17:04:00Z</time></trkpt>
    <trkpt lat="50.6226787" lon="3.0486712"><time>2026-08-10T17:04:00Z</time></trkpt>
    <trkpt lat="50.6225721" lon="3.0480699"><time>2026-08-10T17:05:00Z</time></trkpt>
    <trkpt lat="50.6224601" lon="3.0475086"><time>2026-08-10T17:05:00Z</time></trkpt>
    <trkpt lat="50.6222844" lon="3.0470248"><time>2026-08-10T17:06:00Z</time></trkpt>
    <trkpt lat="50.6220862" lon="3.0465110"><time>2026-08-10T17:06:00Z</time></trkpt>
    <trkpt lat="50.6219247" lon="3.0459604"><time>2026-08-10T17:07:00Z</time></trkpt>
    <trkpt lat="50.6218635" lon="3.0456822"><time>2026-08-10T17:07:00Z</time></trkpt>
    <trkpt lat="50.6217780" lon="3.0454050"><time>2026-08-10T17:08:00Z</time></trkpt>
    <trkpt lat="50.6218718" lon="3.0454933"><time>2026-08-10T17:09:00Z</time></trkpt>
    <trkpt lat="50.6219629" lon="3.0454717"><time>2026-08-10T17:09:00Z</time></trkpt>
    <trkpt lat="50.6222232" lon="3.0451101"><time>2026-08-10T17:10:00Z</time></trkpt>
    <trkpt lat="50.6225285" lon="3.0446541"><time>2026-08-10T17:10:00Z</time></trkpt>
    <trkpt lat="50.6228845" lon="3.0442279"><time>2026-08-10T17:11:00Z</time></trkpt>
    <trkpt lat="50.6232128" lon="3.0438328"><time>2026-08-10T17:11:00Z</time></trkpt>
    <trkpt lat="50.6233238" lon="3.0436774"><time>2026-08-10T17:12:00Z</time></trkpt>
    <trkpt lat="50.6236968" lon="3.0433439"><time>2026-08-10T17:12:00Z</time></trkpt>
    <trkpt lat="50.6239887" lon="3.0429055"><time>2026-08-10T17:13:00Z</time></trkpt>
    <trkpt lat="50.6242954" lon="3.0425231"><time>2026-08-10T17:13:00Z</time></trkpt>
    <trkpt lat="50.6244961" lon="3.0422124"><time>2026-08-10T17:14:00Z</time></trkpt>
    <trkpt lat="50.6247859" lon="3.0418831"><time>2026-08-10T17:14:00Z</time></trkpt>
    <trkpt lat="50.6250297" lon="3.0415463"><time>2026-08-10T17:15:00Z</time></trkpt>
    <trkpt lat="50.6253979" lon="3.0413053"><time>2026-08-10T17:15:00Z</time></trkpt>
    <trkpt lat="50.6257367" lon="3.0416335"><time>2026-08-10T17:16:00Z</time></trkpt>
    <trkpt lat="50.6260618" lon="3.0421463"><time>2026-08-10T17:16:00Z</time></trkpt>
    <trkpt lat="50.6260416" lon="3.0424417"><time>2026-08-10T17:17:00Z</time></trkpt>
    <trkpt lat="50.6263148" lon="3.0426645"><time>2026-08-10T17:17:00Z</time></trkpt>
    <trkpt lat="50.6266890" lon="3.0430285"><time>2026-08-10T17:18:00Z</time></trkpt>
    <trkpt lat="50.6269868" lon="3.0434167"><time>2026-08-10T17:18:00Z</time></trkpt>
    <trkpt lat="50.6272748" lon="3.0438422"><time>2026-08-10T17:19:00Z</time></trkpt>
    <trkpt lat="50.6276094" lon="3.0443807"><time>2026-08-10T17:19:00Z</time></trkpt>
    <trkpt lat="50.6276786" lon="3.0445864"><time>2026-08-10T17:20:00Z</time></trkpt>
    <trkpt lat="50.6279810" lon="3.0449934"><time>2026-08-10T17:20:00Z</time></trkpt>
    <trkpt lat="50.6277283" lon="3.0454440"><time>2026-08-10T17:21:00Z</time></trkpt>
    <trkpt lat="50.6275541" lon="3.0456286"><time>2026-08-10T17:21:00Z</time></trkpt>
    <trkpt lat="50.6275625" lon="3.0456971"><time>2026-08-10T17:22:00Z</time></trkpt>
    <trkpt lat="50.6275511" lon="3.0457021"><time>2026-08-10T17:22:00Z</time></trkpt>
    <trkpt lat="50.6275155" lon="3.0457362"><time>2026-08-10T17:23:00Z</time></trkpt>
    <trkpt lat="50.6273831" lon="3.0459227"><time>2026-08-10T17:23:00Z</time></trkpt>
    <trkpt lat="50.6271540" lon="3.0460763"><time>2026-08-10T17:24:00Z</time></trkpt>
    <trkpt lat="50.6268467" lon="3.0464417"><time>2026-08-10T17:25:00Z</time></trkpt>
    <trkpt lat="50.6264854" lon="3.0468174"><time>2026-08-10T17:25:00Z</time></trkpt>
    <trkpt lat="50.6265032" lon="3.0473032"><time>2026-08-10T17:26:00Z</time></trkpt>
    <trkpt lat="50.6266646" lon="3.0477927"><time>2026-08-10T17:26:00Z</time></trkpt>
    <trkpt lat="50.6262859" lon="3.0481607"><time>2026-08-10T17:27:00Z</time></trkpt>
    <trkpt lat="50.6259334" lon="3.0485600"><time>2026-08-10T17:27:00Z</time></trkpt>
    <trkpt lat="50.6255381" lon="3.0488157"><time>2026-08-10T17:28:00Z</time></trkpt>
    <trkpt lat="50.6254916" lon="3.0493151"><time>2026-08-10T17:28:00Z</time></trkpt>
    <trkpt lat="50.6256273" lon="3.0499404"><time>2026-08-10T17:29:00Z</time></trkpt>
    <trkpt lat="50.6257586" lon="3.0505505"><time>2026-08-10T17:29:00Z</time></trkpt>
    <trkpt lat="50.6259184" lon="3.0511440"><time>2026-08-10T17:30:00Z</time></trkpt>
    <trkpt lat="50.6259367" lon="3.0516886"><time>2026-08-10T17:30:00Z</time></trkpt>
    <trkpt lat="50.6258842" lon="3.0522938"><time>2026-08-10T17:31:00Z</time></trkpt>
    <trkpt lat="50.6258866" lon="3.0529064"><time>2026-08-10T17:31:00Z</time></trkpt>
    <trkpt lat="50.6258062" lon="3.0534042"><time>2026-08-10T17:32:00Z</time></trkpt>
    <trkpt lat="50.6254850" lon="3.0534850"><time>2026-08-10T17:32:00Z</time></trkpt>
    <trkpt lat="50.6252144" lon="3.0536380"><time>2026-08-10T17:33:00Z</time></trkpt>
    <trkpt lat="50.6248336" lon="3.0539696"><time>2026-08-10T17:33:00Z</time></trkpt>
    <trkpt lat="50.6244726" lon="3.0540520"><time>2026-08-10T17:34:00Z</time></trkpt>
    <trkpt lat="50.6241451" lon="3.0545221"><time>2026-08-10T17:34:00Z</time></trkpt>
  </trkseg></trk>
</gpx>
